25117,ORBCOMM FM05,1997,99.91,45.0,-,45.02,Inactive,1,LEO,Eastern Range Airspace,ORBCOMM,Commercial,Communications,Pegasus,1 25117U 97084F   23226.39845730  .00001633  00000+0  54477-3 0  9990,2 25117  45.0180 345.1593 0002058 121.2910 238.8142 14.41255352344345,14.41255352,0.0002058,LEO
25118,ORBCOMM FM06,1997,99.92,45.0,+,45.02,Active,1,LEO,Eastern Range Airspace,ORBCOMM,Commercial,Communications,Pegasus,1 25118U 97084G   23226.10813794  .00001754  00000+0  58265-3 0  9998,2 25118  45.0168 346.6727 0001829 150.3807  20.0958 14.41183280344302,14.4118328,0.0001829,LEO
25119,ORBCOMM FM07,1997,99.92,45.0,-,45.02,Inactive,1,LEO,Eastern Range Airspace,ORBCOMM,Commercial,Communications,Pegasus,1 25119U 97084H   23227.02519433  .00001618  00000+0  54138-3 0  9998,2 25119  45.0168 342.7205 0002173 101.4236 258.6858 14.41132222344428,14.41132222,0.0002173,LEO
25158,ORBCOMM FM03,1998,100.62,-1.0,-,107.98,Inactive,0,LEO,USA,ORBCOMM,Unknown,Unknown,Taurus,1 25158U 98007B   23226.45752972  .00001316  00000+0  54065-3 0  9994,2 25158 107.9790 197.2286 0049101 340.4385  19.4868 14.31143150327835,14.3114315,0.0049101,LEO
25159,ORBCOMM FM04,1998,100.6,45.0,+,107.98,Active,1,LEO,USA,ORBCOMM,Commercial,Communications,Taurus,1 25159U 98007C   23226.91520013  .00001395  00000+0  56838-3 0  9992,2 25159 107.9775 200.9181 0044587 337.5579  22.3608 14.31426630328035,14.3142663,0.0044587,LEO
25413,ORBCOMM FM17,1998,100.54,-1.0,-,44.99,Inactive,0,LEO,Eastern Range Airspace,ORBCOMM,Unknown,Unknown,Pegasus,1 25413U 98046A   23227.18253470  .00001103  00000+0  45695-3 0  9994,2 25413  44.9938 181.2370 0001265  16.8298 343.2590 14.32230836306911,14.32230836,0.0001265,LEO
25414,ORBCOMM FM18,1998,100.37,45.0,-,44.99,Inactive,1,LEO,Eastern Range Airspace,ORBCOMM,Commercial,Communications,Pegasus,1 25414U 98046B   23227.10823386  .00001340  00000+0  51866-3 0  9996,2 25414  44.9939 114.0626 0003334 132.3559 227.7571 14.34683880307788,14.3468388,0.0003334,LEO
25415,ORBCOMM FM19,1998,100.38,45.0,+,44.99,Active,1,LEO,Eastern Range Airspace,ORBCOMM,Commercial,Communications,Pegasus,1 25415U 98046C   23227.07398559  .00001209  00000+0  47382-3 0  9994,2 25415  44.9944 115.3137 0002337 114.1907  26.1917 14.34565298307779,14.34565298,0.0002337,LEO
